NORAD_CAT_ID,OBJECT_NAME,OBJECT_TYPE,EPOCH,MEAN_MOTION,ECCENTRICITY,INCLINATION,RA_OF_ASC_NODE,ARG_OF_PERICENTER,MEAN_ANOMALY,BSTAR,MEAN_MOTION_DOT,MEAN_MOTION_DDOT,TLE_LINE0,TLE_LINE1,TLE_LINE2,SEMIMAJOR_AXIS,PERIOD,APOGEE,PERIGEE,DECAYED
53731.0,STARLINK-4636,PAYLOAD,2023-05-02 17:56:51,15.08825821,0.0001509,53.2151,251.7317,78.9592,281.157,4.9083e-05,4.93e-06,0.0,0 STARLINK-4636,1 53731U 22107AH  23122.74781737  .00000493  00000-0  49083-4 0  9999,2 53731  53.2151 251.7317 0001509  78.9592 281.1570 15.08825821 37283,6917.924,95.438,540.833,538.745,0.0
53731.0,STARLINK-4636,PAYLOAD,2023-05-03 13:01:28,15.08863231,0.000116,53.214,248.1623,65.3998,294.7114,0.00096679,0.00015142,0.0,0 STARLINK-4636,1 53731U 22107AH  23123.54268959  .00015142  00000-0  96679-3 0  9993,2 53731  53.2140 248.1623 0001160  65.3998 294.7114 15.08863231 36778,6917.809,95.436,540.477,538.872,0.0
53731.0,STARLINK-4636,PAYLOAD,2023-05-03 14:36:51,15.0887455,0.0001241,53.2137,247.8646,66.7848,293.3275,0.0014041,0.0002215,0.0,0 STARLINK-4636,1 53731U 22107AH  23123.60892918  .00022150  00000-0  14041-2 0  9997,2 53731  53.2137 247.8646 0001241  66.7848 293.3275 15.08874550 37415,6917.775,95.435,540.498,538.781,0.0
53731.0,STARLINK-4636,PAYLOAD,2023-05-04 01:44:32,15.08874392,0.0001729,53.2143,245.7872,34.965,325.1456,0.00078744,0.00012278,0.0,0 STARLINK-4636,1 53731U 22107AH  23124.07260216  .00012278  00000-0  78744-3 0  9990,2 53731  53.2143 245.7872 0001729  34.9650 325.1456 15.08874392 36855,6917.775,95.435,540.836,538.444,0.0
53731.0,STARLINK-4636,PAYLOAD,2023-05-04 12:52:14,15.08859705,0.0001283,53.2139,243.6987,116.2644,243.848,0.00014713,2.056e-05,0.0,0 STARLINK-4636,1 53731U 22107AH  23124.53627753  .00002056  00000-0  14713-3 0  9993,2 53731  53.2139 243.6987 0001283 116.2644 243.8480 15.08859705 36928,6917.82,95.436,540.573,538.798,0.0
53731.0,STARLINK-4636,PAYLOAD,2023-05-04 17:38:23,15.0886284,0.0001199,53.2145,242.8069,113.6823,246.4295,0.0002569,3.806e-05,0.0,0 STARLINK-4636,1 53731U 22107AH  23124.73499523  .00003806  00000-0  25690-3 0  9997,2 53731  53.2145 242.8069 0001199 113.6823 246.4295 15.08862840 37583,6917.811,95.436,540.505,538.846,0.0
53731.0,STARLINK-4636,PAYLOAD,2023-05-05 07:56:52,15.08844485,0.0001131,53.2144,240.1329,80.655,279.457,3.1751e-05,2.18e-06,0.0,0 STARLINK-4636,1 53731U 22107AH  23125.33115966  .00000218  00000-0  31751-4 0  9990,2 53731  53.2144 240.1329 0001131  80.6550 279.4570 15.08844485 37046,6917.867,95.437,540.514,538.949,0.0
53731.0,STARLINK-4636,PAYLOAD,2023-05-05 14:18:24,15.08841761,0.0001263,53.2149,238.9456,67.7757,292.3369,7.1163e-05,8.45e-06,0.0,0 STARLINK-4636,1 53731U 22107AH  23125.59612078  .00000845  00000-0  71163-4 0  9991,2 53731  53.2149 238.9456 0001263  67.7757 292.3369 15.08841761 37716,6917.875,95.437,540.614,538.866,0.0
53731.0,STARLINK-4636,PAYLOAD,2023-05-06 14:09:12,15.08849167,0.0001249,53.2142,234.4837,78.2714,281.8418,0.00038734,5.884e-05,0.0,0 STARLINK-4636,1 53731U 22107AH  23126.58972242  .00005884  00000-0  38734-3 0  9997,2 53731  53.2142 234.4837 0001249  78.2714 281.8418 15.08849167 37869,6917.852,95.437,540.581,538.853,0.0
53731.0,STARLINK-4636,PAYLOAD,2023-05-06 23:41:30,15.08849687,0.0001255,53.2141,232.6993,83.276,276.8375,0.00040779,6.21e-05,0.0,0 STARLINK-4636,1 53731U 22107AH  23126.98716167  .00006210  00000-0  40779-3 0  9999,2 53731  53.2141 232.6993 0001255  83.2760 276.8375 15.08849687 37295,6917.851,95.437,540.584,538.848,0.0
53731.0,STARLINK-4636,PAYLOAD,2023-05-07 12:24:35,15.08850419,0.0001158,53.2143,230.3204,89.3618,270.7507,0.00031715,4.765e-05,0.0,0 STARLINK-4636,1 53731U 22107AH  23127.51707936  .00004765  00000-0  31715-3 0  9996,2 53731  53.2143 230.3204 0001158  89.3618 270.7507 15.08850419 38003,6917.849,95.437,540.515,538.912,0.0
53731.0,STARLINK-4636,PAYLOAD,2023-05-08 12:15:22,15.0883293,0.0001256,53.2132,225.861,89.8663,270.2473,-0.000185,-3.23e-05,0.0,0 STARLINK-4636,1 53731U 22107AH  23128.51068158 -.00003230  00000-0 -18500-3 0  9998,2 53731  53.2132 225.8610 0001256  89.8663 270.2473 15.08832930 37526,6917.902,95.438,540.636,538.898,0.0
53731.0,STARLINK-4636,PAYLOAD,2023-05-08 13:50:46,15.08836356,0.000133,53.2137,225.5627,85.3689,274.7455,-8.1448e-05,-1.584e-05,0.0,0 STARLINK-4636,1 53731U 22107AH  23128.57692189 -.00001584  00000-0 -81448-4 0  9993,2 53731  53.2137 225.5627 0001330  85.3689 274.7455 15.08836356 38164,6917.892,95.438,540.677,538.836,0.0
53731.0,STARLINK-4636,PAYLOAD,2023-05-09 13:41:33,15.08843561,0.0001447,53.2142,221.1014,78.9424,281.173,0.00031525,4.733e-05,0.0,0 STARLINK-4636,1 53731U 22107AH  23129.57052350  .00004733  00000-0  31525-3 0  9991,2 53731  53.2142 221.1014 0001447  78.9424 281.1730 15.08843561 38317,6917.87,95.437,540.736,538.733,0.0
53731.0,STARLINK-4636,PAYLOAD,2023-05-10 11:56:57,15.08835106,0.0001522,53.2141,216.9386,76.9857,283.1305,0.00020733,3.013e-05,0.0,0 STARLINK-4636,1 53731U 22107AH  23130.49789114  .00003013  00000-0  20733-3 0  9998,2 53731  53.2141 216.9386 0001522  76.9857 283.1305 15.08835106 38453,6917.895,95.438,540.813,538.707,0.0
53731.0,STARLINK-4636,PAYLOAD,2023-05-10 13:32:20,15.08840102,0.0001443,53.2149,216.637,81.56,278.5556,0.00020186,2.926e-05,0.0,0 STARLINK-4636,1 53731U 22107AH  23130.56412842  .00002926  00000-0  20186-3 0  9991,2 53731  53.2149 216.6370 0001443  81.5600 278.5556 15.08840102 38460,6917.88,95.438,540.743,538.747,0.0
53731.0,STARLINK-4636,PAYLOAD,2023-05-11 10:12:21,15.08837756,0.0001545,53.2149,212.7764,82.807,277.3098,0.00046399,7.104e-05,0.0,0 STARLINK-4636,1 53731U 22107AH  23131.42525289  .00007104  00000-0  46399-3 0  9994,2 53731  53.2149 212.7764 0001545  82.8070 277.3098 15.08837756 38595,6917.887,95.438,540.821,538.683,0.0
53731.0,STARLINK-4636,PAYLOAD,2023-05-11 11:47:44,15.08844533,0.0001535,53.2147,212.479,76.1181,283.9981,0.00018084,2.592e-05,0.0,0 STARLINK-4636,1 53731U 22107AH  23131.49148899  .00002592  00000-0  18084-3 0  9995,2 53731  53.2147 212.4790 0001535  76.1181 283.9981 15.08844533 37973,6917.867,95.437,540.793,538.67,0.0
53731.0,STARLINK-4636,PAYLOAD,2023-05-11 22:55:26,15.08843621,0.0001591,53.2147,210.3974,74.8554,285.2614,0.00025043,3.7e-05,0.0,0 STARLINK-4636,1 53731U 22107AH  23131.95516994  .00003700  00000-0  25043-3 0  9996,2 53731  53.2147 210.3974 0001591  74.8554 285.2614 15.08843621 38678,6917.869,95.437,540.835,538.634,0.0
53731.0,STARLINK-4636,PAYLOAD,2023-05-12 08:27:45,15.08848968,0.0001624,53.2149,208.6129,75.8907,284.2265,-0.00026325,-4.476e-05,0.0,0 STARLINK-4636,1 53731U 22107AH  23132.35260528 -.00004476  00000-0 -26325-3 0  9997,2 53731  53.2149 208.6129 0001624  75.8907 284.2265 15.08848968 38739,6917.853,95.437,540.841,538.595,0.0
53731.0,STARLINK-4636,PAYLOAD,2023-05-13 11:29:18,15.08847562,0.0001315,53.2144,203.5545,111.2649,248.8484,0.00018165,2.605e-05,0.0,0 STARLINK-4636,1 53731U 22107AH  23133.47868389  .00002605  00000-0  18165-3 0  9993,2 53731  53.2144 203.5545 0001315 111.2649 248.8484 15.08847562 38272,6917.857,95.437,540.632,538.813,0.0
53731.0,STARLINK-4636,PAYLOAD,2023-05-14 11:20:05,15.08836218,0.000102,53.2145,199.0949,96.0046,264.1063,-2.7869e-07,-2.92e-06,0.0,0 STARLINK-4636,1 53731U 22107AH  23134.47229073 -.00000292  00000-0 -27869-6 0  9991,2 53731  53.2145 199.0949 0001020  96.0046 264.1063 15.08836218 38421,6917.892,95.438,540.463,539.051,0.0
53731.0,STARLINK-4636,PAYLOAD,2023-05-14 20:52:24,15.0883583,0.0001006,53.2145,197.3102,87.7955,272.3152,2.7939e-06,-2.43e-06,0.0,0 STARLINK-4636,1 53731U 22107AH  23134.86973179 -.00000243  00000-0  27939-5 0  9999,2 53731  53.2145 197.3102 0001006  87.7955 272.3152 15.08835830 39119,6917.893,95.438,540.454,539.062,0.0
53731.0,STARLINK-4636,PAYLOAD,2023-05-15 11:10:53,15.08837252,9.66e-05,53.2144,194.6356,100.5635,259.5466,0.00013576,1.873e-05,0.0,0 STARLINK-4636,1 53731U 22107AH  23135.46589245  .00001873  00000-0  13576-3 0  9992,2 53731  53.2144 194.6356 0000966 100.5635 259.5466 15.08837252 39207,6917.889,95.438,540.422,539.086,0.0
53731.0,STARLINK-4636,PAYLOAD,2023-05-15 20:43:11,15.08841353,8.75e-05,53.2143,192.8529,93.7169,266.3923,-3.4775e-05,-8.41e-06,0.0,0 STARLINK-4636,1 53731U 22107AH  23135.86333024 -.00000841  00000-0 -34775-4 0  9999,2 53731  53.2143 192.8529 0000875  93.7169 266.3923 15.08841353 38639,6917.876,95.437,540.347,539.136,0.0
53731.0,STARLINK-4636,PAYLOAD,2023-05-16 11:01:40,15.08833556,8.63e-05,53.2149,190.1764,89.409,270.7001,8.494e-05,1.064e-05,0.0,0 STARLINK-4636,1 53731U 22107AH  23136.45949924  .00001064  00000-0  84940-4 0  9992,2 53731  53.2149 190.1764 0000863  89.4090 270.7001 15.08833556 38721,6917.9,95.438,540.362,539.168,0.0
53731.0,STARLINK-4636,PAYLOAD,2023-05-16 20:33:59,15.08836605,8.66e-05,53.215,188.3922,86.5055,273.6037,0.00011063,1.473e-05,0.0,0 STARLINK-4636,1 53731U 22107AH  23136.85693780  .00001473  00000-0  11063-3 0  9991,2 53731  53.2150 188.3922 0000866  86.5055 273.6037 15.08836605 39416,6917.891,95.438,540.355,539.157,0.0
53731.0,STARLINK-4636,PAYLOAD,2023-05-17 10:52:27,15.08841975,8.6e-05,53.2149,185.7153,81.3347,278.7743,0.00011498,1.543e-05,0.0,0 STARLINK-4636,1 53731U 22107AH  23137.45309480  .00001543  00000-0  11498-3 0  9999,2 53731  53.2149 185.7153 0000860  81.3347 278.7743 15.08841975 38877,6917.874,95.437,540.334,539.144,0.0
53731.0,STARLINK-4636,PAYLOAD,2023-05-17 20:24:46,15.08840526,9.27e-05,53.2157,183.9309,78.8718,281.2378,8.0182e-05,9.89e-06,0.0,0 STARLINK-4636,1 53731U 22107AH  23137.85053648  .00000989  00000-0  80182-4 0  9995,2 53731  53.2157 183.9309 0000927  78.8718 281.2378 15.08840526 39567,6917.879,95.438,540.385,539.102,0.0
53731.0,STARLINK-4636,PAYLOAD,2023-05-18 02:46:19,15.08836757,9.19e-05,53.2155,182.7414,80.7448,279.3648,9.4498e-05,1.216e-05,0.0,0 STARLINK-4636,1 53731U 22107AH  23138.11549886  .00001216  00000-0  94498-4 0  9998,2 53731  53.2155 182.7414 0000919  80.7448 279.3648 15.08836757 38975,6917.89,95.438,540.391,539.12,0.0
